STARLINK-5860           
1 57052U 23088E   25326.37499106 -.00000148  00000+0  41497-5 0  9990
2 57052  43.0063 330.8653 0001343 276.4504  83.6186 15.02531460134225
STARLINK-5865           
1 57053U 23088F   25326.02595262  .00000133  00000+0  24918-4 0  9994
2 57053  43.0040 332.5451 0001095 268.7709  91.3007 15.02534152134174
STARLINK-5881           
1 57054U 23088G   25325.41654791  .00000295  00000+0  36913-4 0  9997
2 57054  43.0027 335.7186 0001331 274.3952  85.6738 15.02537466134084
STARLINK-6237           
1 57055U 23088H   25326.36610433  .00000108  00000+0  23057-4 0  9996
2 57055  43.0049 330.8035 0001411 277.6273  82.4409 15.02539227134222
STARLINK-6353           
1 57056U 23088J   25326.08244344 -.00000472  00000+0 -19858-4 0  9990
2 57056  43.0048 332.1129 0001273 274.5663  85.5033 15.02531025134186
STARLINK-6223           
1 57057U 23088K   25326.07910413 -.00000219  00000+0 -11433-5 0  9998
2 57057  43.0026 332.0638 0000828 254.0652 106.0099 15.02534466134186
STARLINK-6217           
1 57058U 23088L   25326.01929450  .00003374  00000+0  26484-3 0  9997
2 57058  43.0026 332.4981 0000767 262.1181  97.9574 15.02522326134178
STARLINK-6211           
1 57059U 23088M   25326.37831811 -.00000051  00000+0  11298-4 0  9998
2 57059  43.0078 330.8815 0001547 262.4164  97.6503 15.02534526134225
STARLINK-6227           
1 57060U 23088N   25325.05204799 -.00007077  00000+0 -50882-3 0  9990
2 57060  43.0050 338.1315 0001470 259.6646 100.4030 15.02572859134028
STARLINK-5869           
1 57061U 23088P   25326.06911637  .00000115  00000+0  23566-4 0  9993
2 57061  43.0051 332.0031 0001228 267.6078  92.4624 15.02538093133207
STARLINK-5536           
1 57062U 23088Q   25326.00067170  .00001347  00000+0  11479-3 0  9999
2 57062  43.0056 319.3327 0001796 265.2630  94.8007 15.02538683134327
STARLINK-5832           
1 57063U 23088R   25325.99600259  .00000084  00000+0  21279-4 0  9995
2 57063  43.0063 332.3143 0001251 269.9020  90.1679 15.02512668134179
STARLINK-5822           
1 57064U 23088S   25326.36500263 -.00000418  00000+0 -15891-4 0  9998
2 57064  43.0054 330.7833 0000946 266.4503  93.6231 15.02532559133246
STARLINK-5830           
1 57065U 23088T   25326.05258476 -.00000540  00000+0 -24921-4 0  9991
2 57065  43.0036 332.7259 0001072 259.3659 100.7063 15.02537063133197
STARLINK-5827           
1 57066U 23088U   25326.06578240  .00001696  00000+0  14060-3 0  9990
2 57066  43.0053 331.9847 0001608 270.2786  89.7872 15.02530710133207
STARLINK-5824           
1 57067U 23088V   25326.02927348  .00000940  00000+0  84656-4 0  9994
2 57067  43.0047 332.5531 0001221 265.2848  94.7855 15.02539534134179
STARLINK-5844           
1 57068U 23088W   25326.05912569  .00000791  00000+0  73604-4 0  9992
2 57068  43.0047 331.9308 0001733 270.9672  89.0972 15.02538167134180
