[{"OBJECT_NAME":"STARLINK-5860","OBJECT_ID":"2023-088E","EPOCH":"2025-11-22T08:59:59.227584","MEAN_MOTION":15.0253146,"ECCENTRICITY":0.0001343,"INCLINATION":43.0063,"RA_OF_ASC_NODE":330.8653,"ARG_OF_PERICENTER":276.4504,"MEAN_ANOMALY":83.6186,"EPHEMERIS_TYPE":0,"CLASSIFICATION_TYPE":"U","NORAD_CAT_ID":57052,"ELEMENT_SET_NO":999,"REV_AT_EPOCH":13422,"BSTAR":4.1497e-6,"MEAN_MOTION_DOT":-1.48e-6,"MEAN_MOTION_DDOT":0},{"OBJECT_NAME":"STARLINK-5865","OBJECT_ID":"2023-088F","EPOCH":"2025-11-22T00:37:22.306368","MEAN_MOTION":15.02534152,"ECCENTRICITY":0.0001095,"INCLINATION":43.004,"RA_OF_ASC_NODE":332.5451,"ARG_OF_PERICENTER":268.7709,"MEAN_ANOMALY":91.3007,"EPHEMERIS_TYPE":0,"CLASSIFICATION_TYPE":"U","NORAD_CAT_ID":57053,"ELEMENT_SET_NO":999,"REV_AT_EPOCH":13417,"BSTAR":2.4918e-5,"MEAN_MOTION_DOT":1.33e-6,"MEAN_MOTION_DDOT":0},{"OBJECT_NAME":"STARLINK-5881","OBJECT_ID":"2023-088G","EPOCH":"2025-11-21T09:59:49.739424","MEAN_MOTION":15.02537466,"ECCENTRICITY":0.0001331,"INCLINATION":43.0027,"RA_OF_ASC_NODE":335.7186,"ARG_OF_PERICENTER":274.3952,"MEAN_ANOMALY":85.6738,"EPHEMERIS_TYPE":0,"CLASSIFICATION_TYPE":"U","NORAD_CAT_ID":57054,"ELEMENT_SET_NO":999,"REV_AT_EPOCH":13408,"BSTAR":3.6913e-5,"MEAN_MOTION_DOT":2.95e-6,"MEAN_MOTION_DDOT":0},{"OBJECT_NAME":"STARLINK-6237","OBJECT_ID":"2023-088H","EPOCH":"2025-11-22T08:47:11.414112","MEAN_MOTION":15.02539227,"ECCENTRICITY":0.0001411,"INCLINATION":43.0049,"RA_OF_ASC_NODE":330.8035,"ARG_OF_PERICENTER":277.6273,"MEAN_ANOMALY":82.4409,"EPHEMERIS_TYPE":0,"CLASSIFICATION_TYPE":"U","NORAD_CAT_ID":57055,"ELEMENT_SET_NO":999,"REV_AT_EPOCH":13422,"BSTAR":2.3057e-5,"MEAN_MOTION_DOT":1.08e-6,"MEAN_MOTION_DDOT":0},{"OBJECT_NAME":"STARLINK-6353","OBJECT_ID":"2023-088J","EPOCH":"2025-11-22T01:58:43.113216","MEAN_MOTION":15.02531025,"ECCENTRICITY":0.0001273,"INCLINATION":43.0048,"RA_OF_ASC_NODE":332.1129,"ARG_OF_PERICENTER":274.5663,"MEAN_ANOMALY":85.5033,"EPHEMERIS_TYPE":0,"CLASSIFICATION_TYPE":"U","NORAD_CAT_ID":57056,"ELEMENT_SET_NO":999,"REV_AT_EPOCH":13418,"BSTAR":-1.9858e-5,"MEAN_MOTION_DOT":-4.72e-6,"MEAN_MOTION_DDOT":0},{"OBJECT_NAME":"STARLINK-6223","OBJECT_ID":"2023-088K","EPOCH":"2025-11-22T01:53:54.596832","MEAN_MOTION":15.02534466,"ECCENTRICITY":8.28e-5,"INCLINATION":43.0026,"RA_OF_ASC_NODE":332.0638,"ARG_OF_PERICENTER":254.0652,"MEAN_ANOMALY":106.0099,"EPHEMERIS_TYPE":0,"CLASSIFICATION_TYPE":"U","NORAD_CAT_ID":57057,"ELEMENT_SET_NO":999,"REV_AT_EPOCH":13418,"BSTAR":-1.1433e-6,"MEAN_MOTION_DOT":-2.19e-6,"MEAN_MOTION_DDOT":0},{"OBJECT_NAME":"STARLINK-6217","OBJECT_ID":"2023-088L","EPOCH":"2025-11-22T00:27:47.044800","MEAN_MOTION":15.02522326,"ECCENTRICITY":7.67e-5,"INCLINATION":43.0026,"RA_OF_ASC_NODE":332.4981,"ARG_OF_PERICENTER":262.1181,"MEAN_ANOMALY":97.9574,"EPHEMERIS_TYPE":0,"CLASSIFICATION_TYPE":"U","NORAD_CAT_ID":57058,"ELEMENT_SET_NO":999,"REV_AT_EPOCH":13417,"BSTAR":0.00026484,"MEAN_MOTION_DOT":3.374e-5,"MEAN_MOTION_DDOT":0},{"OBJECT_NAME":"STARLINK-6211","OBJECT_ID":"2023-088M","EPOCH":"2025-11-22T09:04:46.684704","MEAN_MOTION":15.02534526,"ECCENTRICITY":0.0001547,"INCLINATION":43.0078,"RA_OF_ASC_NODE":330.8815,"ARG_OF_PERICENTER":262.4164,"MEAN_ANOMALY":97.6503,"EPHEMERIS_TYPE":0,"CLASSIFICATION_TYPE":"U","NORAD_CAT_ID":57059,"ELEMENT_SET_NO":999,"REV_AT_EPOCH":13422,"BSTAR":1.1298e-5,"MEAN_MOTION_DOT":-5.1e-7,"MEAN_MOTION_DDOT":0},{"OBJECT_NAME":"STARLINK-6227","OBJECT_ID":"2023-088N","EPOCH":"2025-11-21T01:14:56.946336","MEAN_MOTION":15.02572859,"ECCENTRICITY":0.000147,"INCLINATION":43.005,"RA_OF_ASC_NODE":338.1315,"ARG_OF_PERICENTER":259.6646,"MEAN_ANOMALY":100.403,"EPHEMERIS_TYPE":0,"CLASSIFICATION_TYPE":"U","NORAD_CAT_ID":57060,"ELEMENT_SET_NO":999,"REV_AT_EPOCH":13402,"BSTAR":-0.00050882,"MEAN_MOTION_DOT":-7.077e-5,"MEAN_MOTION_DDOT":0},{"OBJECT_NAME":"STARLINK-5869","OBJECT_ID":"2023-088P","EPOCH":"2025-11-22T01:39:31.654368","MEAN_MOTION":15.02538093,"ECCENTRICITY":0.0001228,"INCLINATION":43.0051,"RA_OF_ASC_NODE":332.0031,"ARG_OF_PERICENTER":267.6078,"MEAN_ANOMALY":92.4624,"EPHEMERIS_TYPE":0,"CLASSIFICATION_TYPE":"U","NORAD_CAT_ID":57061,"ELEMENT_SET_NO":999,"REV_AT_EPOCH":13320,"BSTAR":2.3566e-5,"MEAN_MOTION_DOT":1.15e-6,"MEAN_MOTION_DDOT":0},{"OBJECT_NAME":"STARLINK-5536","OBJECT_ID":"2023-088Q","EPOCH":"2025-11-22T00:00:58.034880","MEAN_MOTION":15.02538683,"ECCENTRICITY":0.0001796,"INCLINATION":43.0056,"RA_OF_ASC_NODE":319.3327,"ARG_OF_PERICENTER":265.263,"MEAN_ANOMALY":94.8007,"EPHEMERIS_TYPE":0,"CLASSIFICATION_TYPE":"U","NORAD_CAT_ID":57062,"ELEMENT_SET_NO":999,"REV_AT_EPOCH":13432,"BSTAR":0.00011479,"MEAN_MOTION_DOT":1.347e-5,"MEAN_MOTION_DDOT":0},{"OBJECT_NAME":"STARLINK-5832","OBJECT_ID":"2023-088R","EPOCH":"2025-11-21T23:54:14.623776","MEAN_MOTION":15.02512668,"ECCENTRICITY":0.0001251,"INCLINATION":43.0063,"RA_OF_ASC_NODE":332.3143,"ARG_OF_PERICENTER":269.902,"MEAN_ANOMALY":90.1679,"EPHEMERIS_TYPE":0,"CLASSIFICATION_TYPE":"U","NORAD_CAT_ID":57063,"ELEMENT_SET_NO":999,"REV_AT_EPOCH":13417,"BSTAR":2.1279e-5,"MEAN_MOTION_DOT":8.4e-7,"MEAN_MOTION_DDOT":0},{"OBJECT_NAME":"STARLINK-5822","OBJECT_ID":"2023-088S","EPOCH":"2025-11-22T08:45:36.227232","MEAN_MOTION":15.02532559,"ECCENTRICITY":9.46e-5,"INCLINATION":43.0054,"RA_OF_ASC_NODE":330.7833,"ARG_OF_PERICENTER":266.4503,"MEAN_ANOMALY":93.6231,"EPHEMERIS_TYPE":0,"CLASSIFICATION_TYPE":"U","NORAD_CAT_ID":57064,"ELEMENT_SET_NO":999,"REV_AT_EPOCH":13324,"BSTAR":-1.5891e-5,"MEAN_MOTION_DOT":-4.18e-6,"MEAN_MOTION_DDOT":0},{"OBJECT_NAME":"STARLINK-5830","OBJECT_ID":"2023-088T","EPOCH":"2025-11-22T01:15:43.323264","MEAN_MOTION":15.02537063,"ECCENTRICITY":0.0001072,"INCLINATION":43.0036,"RA_OF_ASC_NODE":332.7259,"ARG_OF_PERICENTER":259.3659,"MEAN_ANOMALY":100.7063,"EPHEMERIS_TYPE":0,"CLASSIFICATION_TYPE":"U","NORAD_CAT_ID":57065,"ELEMENT_SET_NO":999,"REV_AT_EPOCH":13319,"BSTAR":-2.4921e-5,"MEAN_MOTION_DOT":-5.4e-6,"MEAN_MOTION_DDOT":0},{"OBJECT_NAME":"STARLINK-5827","OBJECT_ID":"2023-088U","EPOCH":"2025-11-22T01:34:43.599360","MEAN_MOTION":15.0253071,"ECCENTRICITY":0.0001608,"INCLINATION":43.0053,"RA_OF_ASC_NODE":331.9847,"ARG_OF_PERICENTER":270.2786,"MEAN_ANOMALY":89.7872,"EPHEMERIS_TYPE":0,"CLASSIFICATION_TYPE":"U","NORAD_CAT_ID":57066,"ELEMENT_SET_NO":999,"REV_AT_EPOCH":13320,"BSTAR":0.0001406,"MEAN_MOTION_DOT":1.696e-5,"MEAN_MOTION_DDOT":0},{"OBJECT_NAME":"STARLINK-5824","OBJECT_ID":"2023-088V","EPOCH":"2025-11-22T00:42:09.228672","MEAN_MOTION":15.02539534,"ECCENTRICITY":0.0001221,"INCLINATION":43.0047,"RA_OF_ASC_NODE":332.5531,"ARG_OF_PERICENTER":265.2848,"MEAN_ANOMALY":94.7855,"EPHEMERIS_TYPE":0,"CLASSIFICATION_TYPE":"U","NORAD_CAT_ID":57067,"ELEMENT_SET_NO":999,"REV_AT_EPOCH":13417,"BSTAR":8.4656e-5,"MEAN_MOTION_DOT":9.4e-6,"MEAN_MOTION_DDOT":0},{"OBJECT_NAME":"STARLINK-5844","OBJECT_ID":"2023-088W","EPOCH":"2025-11-22T01:25:08.459616","MEAN_MOTION":15.02538167,"ECCENTRICITY":0.0001733,"INCLINATION":43.0047,"RA_OF_ASC_NODE":331.9308,"ARG_OF_PERICENTER":270.9672,"MEAN_ANOMALY":89.0972,"EPHEMERIS_TYPE":0,"CLASSIFICATION_TYPE":"U","NORAD_CAT_ID":57068,"ELEMENT_SET_NO":999,"REV_AT_EPOCH":13418,"BSTAR":7.3604e-5,"MEAN_MOTION_DOT":7.91e-6,"MEAN_MOTION_DDOT":0}]
